start=new Date('2022-05-17T00:00:00.000Z').valueOf();
sats=[{"APOAPSIS":"548.312","TLE_LINE1":"1 47795U 21018J   22136.75669058  .00001898  00000-0  14631-3 0  9998","MEAN_ELEMENT_THEORY":"SGP4","FILE":"3448773","EPHEMERIS_TYPE":"0","EPOCH":"2022-05-16T18:09:38.066112","TIME_SYSTEM":"UTC","MEAN_MOTION_DOT":"0.00001898","ARG_OF_PERICENTER":"70.7455","MEAN_MOTION_DDOT":"0.0000000000000","SEMIMAJOR_AXIS":"6925.360","ECCENTRICITY":"0.00015700","PERIOD":"95.592","MEAN_MOTION":"15.06396401","NORAD_CAT_ID":"47795","LAUNCH_DATE":"2021-03-11","GP_ID":"203704977","INCLINATION":"53.0560","CENTER_NAME":"EARTH","DECAY_DATE":null,"MEAN_ANOMALY":"289.3704","COUNTRY_CODE":"US","OBJECT_TYPE":"PAYLOAD","PERIAPSIS":"546.137","REV_AT_EPOCH":"6658","CLASSIFICATION_TYPE":"U","BSTAR":"0.00014631000000","ELEMENT_SET_NO":"999","OBJECT_NAME":"STARLINK-2347","RCS_SIZE":"LARGE","REF_FRAME":"TEME","OBJECT_ID":"2021-018J","SITE":"AFETR","TLE_LINE2":"2 47795  53.0560   4.7483 0001570  70.7455 289.3704 15.06396401 66583","RA_OF_ASC_NODE":"4.7483"},{"APOAPSIS":"548.287","TLE_LINE1":"1 47796U 21018K   22136.37335252  .00001686  00000-0  13205-3 0  9994","FILE":"3448591","MEAN_ELEMENT_THEORY":"SGP4","EPHEMERIS_TYPE":"0","MEAN_MOTION":"15.06394714","SEMIMAJOR_AXIS":"6925.365","PERIOD":"95.592","ECCENTRICITY":"0.00015270","MEAN_MOTION_DOT":"0.00001686","EPOCH":"2022-05-16T08:57:37.657728","TIME_SYSTEM":"UTC","MEAN_MOTION_DDOT":"0.0000000000000","ARG_OF_PERICENTER":"61.4200","DECAY_DATE":null,"MEAN_ANOMALY":"298.6943","INCLINATION":"53.0553","GP_ID":"203698556","LAUNCH_DATE":"2021-03-11","NORAD_CAT_ID":"47796","CENTER_NAME":"EARTH","RCS_SIZE":"LARGE","OBJECT_ID":"2021-018K","REF_FRAME":"TEME","OBJECT_NAME":"STARLINK-2373","SITE":"AFETR","TLE_LINE2":"2 47796  53.0553   6.4717 0001527  61.4200 298.6943 15.06394714 66877","RA_OF_ASC_NODE":"6.4717","REV_AT_EPOCH":"6687","COUNTRY_CODE":"US","OBJECT_TYPE":"PAYLOAD","PERIAPSIS":"546.172","ELEMENT_SET_NO":"999","BSTAR":"0.00013205000000","CLASSIFICATION_TYPE":"U"},{"CLASSIFICATION_TYPE":"U","BSTAR":"0.00045604000000","ELEMENT_SET_NO":"999","COUNTRY_CODE":"US","PERIAPSIS":"546.089","OBJECT_TYPE":"PAYLOAD","REV_AT_EPOCH":"6652","TLE_LINE2":"2 47797  53.0563  31.2914 0001583  62.3178 297.7972 15.06409266 66523","SITE":"AFETR","RA_OF_ASC_NODE":"31.2914","OBJECT_NAME":"STARLINK-2377","RCS_SIZE":"LARGE","REF_FRAME":"TEME","OBJECT_ID":"2021-018L","CENTER_NAME":"EARTH","NORAD_CAT_ID":"47797","LAUNCH_DATE":"2021-03-11","GP_ID":"203696816","INCLINATION":"53.0563","DECAY_DATE":null,"MEAN_ANOMALY":"297.7972","MEAN_MOTION_DDOT":"0.0000000000000","ARG_OF_PERICENTER":"62.3178","TIME_SYSTEM":"UTC","EPOCH":"2022-05-16T09:50:02.990112","MEAN_MOTION_DOT":"0.00006519","SEMIMAJOR_AXIS":"6925.320","PERIOD":"95.592","ECCENTRICITY":"0.00015830","MEAN_MOTION":"15.06409266","MEAN_ELEMENT_THEORY":"SGP4","FILE":"3448591","EPHEMERIS_TYPE":"0","APOAPSIS":"548.281","TLE_LINE1":"1 47797U 21018L   22136.40975683  .00006519  00000-0  45604-3 0  9995"},{"MEAN_MOTION":"15.06402247","SEMIMAJOR_AXIS":"6925.342","ECCENTRICITY":"0.00017000","PERIOD":"95.592","MEAN_MOTION_DOT":"-0.00001610","EPOCH":"2022-05-15T22:04:46.430112","TIME_SYSTEM":"UTC","MEAN_MOTION_DDOT":"0.0000000000000","ARG_OF_PERICENTER":"55.1280","APOAPSIS":"548.384","TLE_LINE1":"1 47798U 21018M   22135.91998183 -.00001610  00000-0 -89197-4 0  9996","FILE":"3447720","EPHEMERIS_TYPE":"0","MEAN_ELEMENT_THEORY":"SGP4","RCS_SIZE":"LARGE","REF_FRAME":"TEME","OBJECT_ID":"2021-018M","OBJECT_NAME":"STARLINK-2379","SITE":"AFETR","TLE_LINE2":"2 47798  53.0549   8.5070 0001700  55.1280 304.9868 15.06402247 66452","RA_OF_ASC_NODE":"8.5070","REV_AT_EPOCH":"6645","PERIAPSIS":"546.029","COUNTRY_CODE":"US","OBJECT_TYPE":"PAYLOAD","ELEMENT_SET_NO":"999","BSTAR":"-0.00008919700000","CLASSIFICATION_TYPE":"U","DECAY_DATE":null,"MEAN_ANOMALY":"304.9868","INCLINATION":"53.0549","GP_ID":"203656939","LAUNCH_DATE":"2021-03-11","NORAD_CAT_ID":"47798","CENTER_NAME":"EARTH"},{"REV_AT_EPOCH":"6656","COUNTRY_CODE":"US","OBJECT_TYPE":"PAYLOAD","PERIAPSIS":"546.411","BSTAR":"0.00009821100000","ELEMENT_SET_NO":"999","CLASSIFICATION_TYPE":"U","RCS_SIZE":"LARGE","REF_FRAME":"TEME","OBJECT_ID":"2021-018N","OBJECT_NAME":"STARLINK-2380","SITE":"AFETR","TLE_LINE2":"2 47799  53.0544   5.2363 0001173  63.6476 296.4633 15.06396781 66564","RA_OF_ASC_NODE":"5.2363","INCLINATION":"53.0544","GP_ID":"203709564","LAUNCH_DATE":"2021-03-11","NORAD_CAT_ID":"47799","CENTER_NAME":"EARTH","DECAY_DATE":null,"MEAN_ANOMALY":"296.4633","MEAN_MOTION_DOT":"0.00001182","TIME_SYSTEM":"UTC","EPOCH":"2022-05-16T15:30:23.990400","MEAN_MOTION_DDOT":"0.0000000000000","ARG_OF_PERICENTER":"63.6476","MEAN_MOTION":"15.06396781","SEMIMAJOR_AXIS":"6925.358","PERIOD":"95.592","ECCENTRICITY":"0.00011730","APOAPSIS":"548.036","TLE_LINE1":"1 47799U 21018N   22136.64611100  .00001182  00000-0  98211-4 0  9998","FILE":"3448971","EPHEMERIS_TYPE":"0","MEAN_ELEMENT_THEORY":"SGP4"},{"CENTER_NAME":"EARTH","NORAD_CAT_ID":"47800","GP_ID":"203698058","INCLINATION":"53.0553","LAUNCH_DATE":"2021-03-11","MEAN_ANOMALY":"294.7981","DECAY_DATE":null,"CLASSIFICATION_TYPE":"U","ELEMENT_SET_NO":"999","BSTAR":"-0.00005130100000","OBJECT_TYPE":"PAYLOAD","COUNTRY_CODE":"US","PERIAPSIS":"546.030","REV_AT_EPOCH":"6686","RA_OF_ASC_NODE":"6.6316","TLE_LINE2":"2 47800  53.0553   6.6316 0001720  65.3187 294.7981 15.06397497 66861","SITE":"AFETR","OBJECT_NAME":"STARLINK-2381","OBJECT_ID":"2021-018P","REF_FRAME":"TEME","RCS_SIZE":"LARGE","EPHEMERIS_TYPE":"0","FILE":"3448591","MEAN_ELEMENT_THEORY":"SGP4","TLE_LINE1":"1 47800U 21018P   22136.33649226 -.00001046  00000-0 -51301-4 0  9997","APOAPSIS":"548.412","MEAN_MOTION_DDOT":"0.0000000000000","ARG_OF_PERICENTER":"65.3187","TIME_SYSTEM":"UTC","EPOCH":"2022-05-16T08:04:32.931264","MEAN_MOTION_DOT":"-0.00001046","ECCENTRICITY":"0.00017200","PERIOD":"95.592","SEMIMAJOR_AXIS":"6925.356","MEAN_MOTION":"15.06397497"},{"OBJECT_NAME":"STARLINK-2382","OBJECT_ID":"2021-018Q","REF_FRAME":"TEME","RCS_SIZE":"LARGE","RA_OF_ASC_NODE":"9.4659","TLE_LINE2":"2 47801  53.0507   9.4659 0001747  63.4863 296.6305 15.06395995 66526","SITE":"AFETR","COUNTRY_CODE":"US","PERIAPSIS":"546.016","OBJECT_TYPE":"PAYLOAD","REV_AT_EPOCH":"6652","CLASSIFICATION_TYPE":"U","ELEMENT_SET_NO":"999","BSTAR":"0.00017716000000","MEAN_ANOMALY":"296.6305","DECAY_DATE":null,"NORAD_CAT_ID":"47801","INCLINATION":"53.0507","GP_ID":"203708982","LAUNCH_DATE":"2021-03-11","CENTER_NAME":"EARTH","ECCENTRICITY":"0.00017470","PERIOD":"95.592","SEMIMAJOR_AXIS":"6925.361","MEAN_MOTION":"15.06395995","TIME_SYSTEM":"UTC","EPOCH":"2022-05-16T20:03:05.668992","MEAN_MOTION_DOT":"0.00002358","MEAN_MOTION_DDOT":"0.0000000000000","ARG_OF_PERICENTER":"63.4863","TLE_LINE1":"1 47801U 21018Q   22136.83548228  .00002358  00000-0  17716-3 0  9999","APOAPSIS":"548.436","FILE":"3448933","EPHEMERIS_TYPE":"0","MEAN_ELEMENT_THEORY":"SGP4"},{"INCLINATION":"53.0555","GP_ID":"203705075","LAUNCH_DATE":"2021-03-11","NORAD_CAT_ID":"47802","CENTER_NAME":"EARTH","DECAY_DATE":null,"MEAN_ANOMALY":"292.3310","REV_AT_EPOCH":"6623","COUNTRY_CODE":"US","OBJECT_TYPE":"PAYLOAD","PERIAPSIS":"546.141","BSTAR":"0.00015994000000","ELEMENT_SET_NO":"999","CLASSIFICATION_TYPE":"U","RCS_SIZE":"LARGE","OBJECT_ID":"2021-018R","REF_FRAME":"TEME","OBJECT_NAME":"STARLINK-2383","SITE":"AFETR","TLE_LINE2":"2 47802  53.0555  29.7655 0001534  67.7842 292.3310 15.06403199 66232","RA_OF_ASC_NODE":"29.7655","APOAPSIS":"548.266","TLE_LINE1":"1 47802U 21018R   22136.74885955  .00002102  00000-0  15994-3 0  9994","FILE":"3448801","MEAN_ELEMENT_THEORY":"SGP4","EPHEMERIS_TYPE":"0","MEAN_MOTION_DOT":"0.00002102","TIME_SYSTEM":"UTC","EPOCH":"2022-05-16T17:58:21.465120","ARG_OF_PERICENTER":"67.7842","MEAN_MOTION_DDOT":"0.0000000000000","MEAN_MOTION":"15.06403199","SEMIMAJOR_AXIS":"6925.339","PERIOD":"95.592","ECCENTRICITY":"0.00015340"},{"MEAN_MOTION":"15.06392722","ECCENTRICITY":"0.00016200","PERIOD":"95.593","SEMIMAJOR_AXIS":"6925.371","MEAN_MOTION_DOT":"0.00000480","EPOCH":"2022-05-16T14:42:38.284704","TIME_SYSTEM":"UTC","MEAN_MOTION_DDOT":"0.0000000000000","ARG_OF_PERICENTER":"57.2155","TLE_LINE1":"1 47803U 21018S   22136.61294311  .00000480  00000-0  51151-4 0  9994","APOAPSIS":"548.358","FILE":"3448591","MEAN_ELEMENT_THEORY":"SGP4","EPHEMERIS_TYPE":"0","REF_FRAME":"TEME","OBJECT_ID":"2021-018S","RCS_SIZE":"LARGE","OBJECT_NAME":"STARLINK-2384","RA_OF_ASC_NODE":"5.3894","SITE":"AFETR","TLE_LINE2":"2 47803  53.0561   5.3894 0001620  57.2155 302.8990 15.06392722 66906","REV_AT_EPOCH":"6690","OBJECT_TYPE":"PAYLOAD","COUNTRY_CODE":"US","PERIAPSIS":"546.114","ELEMENT_SET_NO":"999","BSTAR":"0.00005115100000","CLASSIFICATION_TYPE":"U","MEAN_ANOMALY":"302.8990","DECAY_DATE":null,"LAUNCH_DATE":"2021-03-11","GP_ID":"203697818","INCLINATION":"53.0561","NORAD_CAT_ID":"47803","CENTER_NAME":"EARTH"},{"MEAN_MOTION_DDOT":"0.0000000000000","ARG_OF_PERICENTER":"65.3105","EPOCH":"2022-05-16T18:14:56.343840","TIME_SYSTEM":"UTC","MEAN_MOTION_DOT":"-0.00000510","PERIOD":"95.592","ECCENTRICITY":"0.00016430","SEMIMAJOR_AXIS":"6925.354","MEAN_MOTION":"15.06398111","MEAN_ELEMENT_THEORY":"SGP4","FILE":"3448684","EPHEMERIS_TYPE":"0","TLE_LINE1":"1 47804U 21018T   22136.76037435 -.00000510  00000-0 -15341-4 0  9990","APOAPSIS":"548.357","CLASSIFICATION_TYPE":"U","BSTAR":"-0.00001534100000","ELEMENT_SET_NO":"999","PERIAPSIS":"546.082","COUNTRY_CODE":"US","OBJECT_TYPE":"PAYLOAD","REV_AT_EPOCH":"6658","RA_OF_ASC_NODE":"4.7319","TLE_LINE2":"2 47804  53.0564   4.7319 0001643  65.3105 294.8055 15.06398111 66589","SITE":"AFETR","OBJECT_NAME":"STARLINK-2385","OBJECT_ID":"2021-018T","REF_FRAME":"TEME","RCS_SIZE":"LARGE","CENTER_NAME":"EARTH","NORAD_CAT_ID":"47804","LAUNCH_DATE":"2021-03-11","GP_ID":"203702585","INCLINATION":"53.0564","MEAN_ANOMALY":"294.8055","DECAY_DATE":null}];
